0 ANIK F1-R
1 28868U 05036A   13282.17555213 -.00000087  00000-0  00000+0 0  3237
2 28868 000.0332 080.1715 0000485 032.4838 221.2180 01.00272001 29683
0 ANIK F1-R
1 28868U 05036A   13283.40000000 -.00000091  00000-0  00000+0 0  3249
2 28868 000.0090 343.5360 0000783 179.6880 252.6400 01.00273350 29702
0 ANIK F1-R
1 28868U 05036A   13285.36980319 -.00000097  00000-0  00000+0 0  3253
2 28868 000.0165 228.7125 0000962 264.9439 273.2970 01.00271817 29724
0 ANIK F1-R
1 28868U 05036A   13286.36031609 -.00000099  00000-0  00000+0 0  3266
2 28868 000.0172 244.7294 0000464 304.5822 215.1917 01.00271314 29730
0 ANIK F1-R
1 28868U 05036A   13288.42424477 -.00000099  00000-0  00000+0 0  3275
2 28868 000.0284 049.8148 0003472 119.7239 260.0382 01.00270937 29753
0 ANIK F1-R
1 28868U 05036A   13290.48949082  .00000000  00000-0  10000-3 0  3296
2 28868 000.0467 068.4645 0001271 158.1337 228.4845 01.00269170 29777
0 ANIK F1-R
1 28868U 05036A   13290.56237877 -.00000096  00000-0  00000+0 0  3287
2 28868 000.0329 047.2249 0002361 149.2916 284.8825 01.00271981 29771
0 ANIK F1-R
1 28868U 05036A   13291.36176258 -.00000094  00000-0  00000+0 0  3290
2 28868 000.0344 040.5536 0000865 192.0674 177.3272 01.00272160 29780
0 ANIK F1-R
1 28868U 05036A   13293.48522986 -.00000090  00000-0  00000+0 0  3306
2 28868 000.0256 083.0109 0000567 151.8717 221.6123 01.00272238 29807
0 ANIK F1-R
1 28868U 05036A   13295.35469630 -.00000087  00000-0  00000+0 0  3317
2 28868 000.0317 097.3759 0000591 124.2785 189.6931 01.00272220 29823
